ONEWEB-0639             
1 55803U 23029H   26103.89089691 -.00000033  00000+0 -11566-3 0  9998
2 55803  87.9170 317.7989 0002660  74.3785 285.7641 13.19723365150422
ONEWEB-0640             
1 55804U 23029J   26104.23529541  .00000254  00000+0  65169-3 0  9992
2 55804  87.8923 302.5140 0002312 100.1304 260.0086 13.14501850151011
ONEWEB-0641             
1 55805U 23029K   26103.88614997 -.00000156  00000+0 -42248-3 0  9999
2 55805  87.9169 317.7871 0001877  81.4227 278.7119 13.19725891150430
ONEWEB-0642             
1 55806U 23029L   26103.88142304 -.00000001  00000+0 -35537-4 0  9991
2 55806  87.9169 317.8020 0002382  69.7109 290.4280 13.19726816150425
ONEWEB-0643             
1 55807U 23029M   26104.28127762 -.00000153  00000+0 -44596-3 0  9990
2 55807  87.8920 302.4915 0002022  69.8596 290.2751 13.14500740150999
ONEWEB-0644             
1 55808U 23029N   26103.87667398 -.00000174  00000+0 -46694-3 0  9993
2 55808  87.9158 317.8068 0002018  77.0448 283.0910 13.19725467150420
ONEWEB-0645             
1 55809U 23029P   26104.12625074  .00000004  00000+0 -21820-4 0  9994
2 55809  87.9171 317.7522 0002244  86.1205 274.0185 13.19724158150456
ONEWEB-0646             
1 55810U 23029Q   26104.14361426  .00000057  00000+0  10902-3 0  9991
2 55810  87.9167 317.7487 0001937  78.3841 281.7509 13.19727247150446
ONEWEB-0648             
1 55811U 23029R   26104.24956520  .00000026  00000+0  34372-4 0  9992
2 55811  87.8932 302.4655 0002627  81.9132 278.2295 13.14501208150999
ONEWEB-0649             
1 55812U 23029S   26103.86562277  .00000061  00000+0  11912-3 0  9995
2 55812  87.9169 317.8013 0002059  84.6382 275.4985 13.19723230150448
ONEWEB-0650             
1 55813U 23029T   26103.86088245 -.00000195  00000+0 -51854-3 0  9993
2 55813  87.9166 317.8051 0002124  76.5531 283.5838 13.19724457150413
ONEWEB-0652             
1 55814U 23029U   26104.07829578  .00000307  00000+0  79249-3 0  9991
2 55814  87.8919 302.5120 0001563  91.0621 269.0688 13.14501321150943
ONEWEB-0653             
1 55815U 23029V   26104.06243870  .00000097  00000+0  22626-3 0  9999
2 55815  87.8929 302.5089 0001751  94.9513 265.1817 13.14501923150972
ONEWEB-0654             
1 55816U 23029W   26103.82932676  .00000069  00000+0  15062-3 0  9997
2 55816  87.8923 302.5525 0001468  98.2394 261.8902 13.14501482150968
ONEWEB-0656             
1 55817U 23029X   26103.73504617  .00000033  00000+0  48668-4 0  9998
2 55817  87.9141 287.2947 0001492 104.9123 255.2176 13.20771544152643
ONEWEB-0657             
1 55818U 23029Y   26104.00777907  .00000100  00000+0  21769-3 0  9991
2 55818  87.9170 317.7744 0001137  73.3847 286.7411 13.19723881150444
