[{"OBJECT_NAME":"ONEWEB-0639","OBJECT_ID":"2023-029H","EPOCH":"2026-04-13T21:22:53.493024","MEAN_MOTION":13.19723365,"ECCENTRICITY":0.000266,"INCLINATION":87.917,"RA_OF_ASC_NODE":317.7989,"ARG_OF_PERICENTER":74.3785,"MEAN_ANOMALY":285.7641,"EPHEMERIS_TYPE":0,"CLASSIFICATION_TYPE":"U","NORAD_CAT_ID":55803,"ELEMENT_SET_NO":999,"REV_AT_EPOCH":15042,"BSTAR":-0.00011566,"MEAN_MOTION_DOT":-3.3e-07,"MEAN_MOTION_DDOT":0.0},{"OBJECT_NAME":"ONEWEB-0640","OBJECT_ID":"2023-029J","EPOCH":"2026-04-14T05:38:49.523424","MEAN_MOTION":13.1450185,"ECCENTRICITY":0.0002312,"INCLINATION":87.8923,"RA_OF_ASC_NODE":302.514,"ARG_OF_PERICENTER":100.1304,"MEAN_ANOMALY":260.0086,"EPHEMERIS_TYPE":0,"CLASSIFICATION_TYPE":"U","NORAD_CAT_ID":55804,"ELEMENT_SET_NO":999,"REV_AT_EPOCH":15101,"BSTAR":0.00065169,"MEAN_MOTION_DOT":2.54e-06,"MEAN_MOTION_DDOT":0.0},{"OBJECT_NAME":"ONEWEB-0641","OBJECT_ID":"2023-029K","EPOCH":"2026-04-13T21:16:03.357408","MEAN_MOTION":13.19725891,"ECCENTRICITY":0.0001877,"INCLINATION":87.9169,"RA_OF_ASC_NODE":317.7871,"ARG_OF_PERICENTER":81.4227,"MEAN_ANOMALY":278.7119,"EPHEMERIS_TYPE":0,"CLASSIFICATION_TYPE":"U","NORAD_CAT_ID":55805,"ELEMENT_SET_NO":999,"REV_AT_EPOCH":15043,"BSTAR":-0.00042248000000000003,"MEAN_MOTION_DOT":-1.56e-06,"MEAN_MOTION_DDOT":0.0},{"OBJECT_NAME":"ONEWEB-0642","OBJECT_ID":"2023-029L","EPOCH":"2026-04-13T21:09:14.950656","MEAN_MOTION":13.19726816,"ECCENTRICITY":0.0002382,"INCLINATION":87.9169,"RA_OF_ASC_NODE":317.802,"ARG_OF_PERICENTER":69.7109,"MEAN_ANOMALY":290.428,"EPHEMERIS_TYPE":0,"CLASSIFICATION_TYPE":"U","NORAD_CAT_ID":55806,"ELEMENT_SET_NO":999,"REV_AT_EPOCH":15042,"BSTAR":-3.5537e-05,"MEAN_MOTION_DOT":-1e-08,"MEAN_MOTION_DDOT":0.0},{"OBJECT_NAME":"ONEWEB-0643","OBJECT_ID":"2023-029M","EPOCH":"2026-04-14T06:45:02.386368","MEAN_MOTION":13.1450074,"ECCENTRICITY":0.0002022,"INCLINATION":87.892,"RA_OF_ASC_NODE":302.4915,"ARG_OF_PERICENTER":69.8596,"MEAN_ANOMALY":290.2751,"EPHEMERIS_TYPE":0,"CLASSIFICATION_TYPE":"U","NORAD_CAT_ID":55807,"ELEMENT_SET_NO":999,"REV_AT_EPOCH":15099,"BSTAR":-0.00044596,"MEAN_MOTION_DOT":-1.53e-06,"MEAN_MOTION_DDOT":0.0},{"OBJECT_NAME":"ONEWEB-0644","OBJECT_ID":"2023-029N","EPOCH":"2026-04-13T21:02:24.631872","MEAN_MOTION":13.19725467,"ECCENTRICITY":0.0002018,"INCLINATION":87.9158,"RA_OF_ASC_NODE":317.8068,"ARG_OF_PERICENTER":77.0448,"MEAN_ANOMALY":283.091,"EPHEMERIS_TYPE":0,"CLASSIFICATION_TYPE":"U","NORAD_CAT_ID":55808,"ELEMENT_SET_NO":999,"REV_AT_EPOCH":15042,"BSTAR":-0.00046694000000000005,"MEAN_MOTION_DOT":-1.74e-06,"MEAN_MOTION_DDOT":0.0},{"OBJECT_NAME":"ONEWEB-0645","OBJECT_ID":"2023-029P","EPOCH":"2026-04-14T03:01:48.063936","MEAN_MOTION":13.19724158,"ECCENTRICITY":0.0002244,"INCLINATION":87.9171,"RA_OF_ASC_NODE":317.7522,"ARG_OF_PERICENTER":86.1205,"MEAN_ANOMALY":274.0185,"EPHEMERIS_TYPE":0,"CLASSIFICATION_TYPE":"U","NORAD_CAT_ID":55809,"ELEMENT_SET_NO":999,"REV_AT_EPOCH":15045,"BSTAR":-2.182e-05,"MEAN_MOTION_DOT":4e-08,"MEAN_MOTION_DDOT":0.0},{"OBJECT_NAME":"ONEWEB-0646","OBJECT_ID":"2023-029Q","EPOCH":"2026-04-14T03:26:48.272064","MEAN_MOTION":13.19727247,"ECCENTRICITY":0.0001937,"INCLINATION":87.9167,"RA_OF_ASC_NODE":317.7487,"ARG_OF_PERICENTER":78.3841,"MEAN_ANOMALY":281.7509,"EPHEMERIS_TYPE":0,"CLASSIFICATION_TYPE":"U","NORAD_CAT_ID":55810,"ELEMENT_SET_NO":999,"REV_AT_EPOCH":15044,"BSTAR":0.00010902000000000001,"MEAN_MOTION_DOT":5.7e-07,"MEAN_MOTION_DDOT":0.0},{"OBJECT_NAME":"ONEWEB-0648","OBJECT_ID":"2023-029R","EPOCH":"2026-04-14T05:59:22.433280","MEAN_MOTION":13.14501208,"ECCENTRICITY":0.0002627,"INCLINATION":87.8932,"RA_OF_ASC_NODE":302.4655,"ARG_OF_PERICENTER":81.9132,"MEAN_ANOMALY":278.2295,"EPHEMERIS_TYPE":0,"CLASSIFICATION_TYPE":"U","NORAD_CAT_ID":55811,"ELEMENT_SET_NO":999,"REV_AT_EPOCH":15099,"BSTAR":3.4372e-05,"MEAN_MOTION_DOT":2.6e-07,"MEAN_MOTION_DDOT":0.0},{"OBJECT_NAME":"ONEWEB-0649","OBJECT_ID":"2023-029S","EPOCH":"2026-04-13T20:46:29.807328","MEAN_MOTION":13.1972323,"ECCENTRICITY":0.0002059,"INCLINATION":87.9169,"RA_OF_ASC_NODE":317.8013,"ARG_OF_PERICENTER":84.6382,"MEAN_ANOMALY":275.4985,"EPHEMERIS_TYPE":0,"CLASSIFICATION_TYPE":"U","NORAD_CAT_ID":55812,"ELEMENT_SET_NO":999,"REV_AT_EPOCH":15044,"BSTAR":0.00011912000000000001,"MEAN_MOTION_DOT":6.1e-07,"MEAN_MOTION_DDOT":0.0},{"OBJECT_NAME":"ONEWEB-0650","OBJECT_ID":"2023-029T","EPOCH":"2026-04-13T20:39:40.243680","MEAN_MOTION":13.19724457,"ECCENTRICITY":0.0002124,"INCLINATION":87.9166,"RA_OF_ASC_NODE":317.8051,"ARG_OF_PERICENTER":76.5531,"MEAN_ANOMALY":283.5838,"EPHEMERIS_TYPE":0,"CLASSIFICATION_TYPE":"U","NORAD_CAT_ID":55813,"ELEMENT_SET_NO":999,"REV_AT_EPOCH":15041,"BSTAR":-0.0005185400000000001,"MEAN_MOTION_DOT":-1.95e-06,"MEAN_MOTION_DDOT":0.0},{"OBJECT_NAME":"ONEWEB-0652","OBJECT_ID":"2023-029U","EPOCH":"2026-04-14T01:52:44.755392","MEAN_MOTION":13.14501321,"ECCENTRICITY":0.0001563,"INCLINATION":87.8919,"RA_OF_ASC_NODE":302.512,"ARG_OF_PERICENTER":91.0621,"MEAN_ANOMALY":269.0688,"EPHEMERIS_TYPE":0,"CLASSIFICATION_TYPE":"U","NORAD_CAT_ID":55814,"ELEMENT_SET_NO":999,"REV_AT_EPOCH":15094,"BSTAR":0.0007924900000000001,"MEAN_MOTION_DOT":3.07e-06,"MEAN_MOTION_DDOT":0.0},{"OBJECT_NAME":"ONEWEB-0653","OBJECT_ID":"2023-029V","EPOCH":"2026-04-14T01:29:54.703680","MEAN_MOTION":13.14501923,"ECCENTRICITY":0.0001751,"INCLINATION":87.8929,"RA_OF_ASC_NODE":302.5089,"ARG_OF_PERICENTER":94.9513,"MEAN_ANOMALY":265.1817,"EPHEMERIS_TYPE":0,"CLASSIFICATION_TYPE":"U","NORAD_CAT_ID":55815,"ELEMENT_SET_NO":999,"REV_AT_EPOCH":15097,"BSTAR":0.00022626,"MEAN_MOTION_DOT":9.7e-07,"MEAN_MOTION_DDOT":0.0},{"OBJECT_NAME":"ONEWEB-0654","OBJECT_ID":"2023-029W","EPOCH":"2026-04-13T19:54:13.832064","MEAN_MOTION":13.14501482,"ECCENTRICITY":0.0001468,"INCLINATION":87.8923,"RA_OF_ASC_NODE":302.5525,"ARG_OF_PERICENTER":98.2394,"MEAN_ANOMALY":261.8902,"EPHEMERIS_TYPE":0,"CLASSIFICATION_TYPE":"U","NORAD_CAT_ID":55816,"ELEMENT_SET_NO":999,"REV_AT_EPOCH":15096,"BSTAR":0.00015062000000000002,"MEAN_MOTION_DOT":6.9e-07,"MEAN_MOTION_DDOT":0.0},{"OBJECT_NAME":"ONEWEB-0656","OBJECT_ID":"2023-029X","EPOCH":"2026-04-13T17:38:27.989088","MEAN_MOTION":13.20771544,"ECCENTRICITY":0.0001492,"INCLINATION":87.9141,"RA_OF_ASC_NODE":287.2947,"ARG_OF_PERICENTER":104.9123,"MEAN_ANOMALY":255.2176,"EPHEMERIS_TYPE":0,"CLASSIFICATION_TYPE":"U","NORAD_CAT_ID":55817,"ELEMENT_SET_NO":999,"REV_AT_EPOCH":15264,"BSTAR":4.8668e-05,"MEAN_MOTION_DOT":3.3e-07,"MEAN_MOTION_DDOT":0.0},{"OBJECT_NAME":"ONEWEB-0657","OBJECT_ID":"2023-029Y","EPOCH":"2026-04-14T00:11:12.111648","MEAN_MOTION":13.19723881,"ECCENTRICITY":0.0001137,"INCLINATION":87.917,"RA_OF_ASC_NODE":317.7744,"ARG_OF_PERICENTER":73.3847,"MEAN_ANOMALY":286.7411,"EPHEMERIS_TYPE":0,"CLASSIFICATION_TYPE":"U","NORAD_CAT_ID":55818,"ELEMENT_SET_NO":999,"REV_AT_EPOCH":15044,"BSTAR":0.00021769,"MEAN_MOTION_DOT":1e-06,"MEAN_MOTION_DDOT":0.0}]